STARLINK-1361
1 15567C 20025AN  21326.15941175  .00004672  00000-0  31303-3 0  3269
2 15567  53.0538 288.0263 0001965  62.3609 159.9630 15.06393660    12
